From: horizons@ssd.jpl.nasa.gov (Horizons Ephemeris System)
Subject: [Horizons] SMALL BODY #C(500@10)_T(46P/Wirtanen) (1/1)
Date: March 1, 2021 at 1:22:50 PM PST

Automated mail xmit by MAIL_REQUEST, PID= 2301 Mon Mar  1 13:22:50 2021
++++++++++++++++++++++++++++++++ (part 1 of 1)  +++++++++++++++++++++++++++++++
*******************************************************************************
JPL/HORIZONS                    46P/Wirtanen               2021-Mar-01 13:22:50
Rec #:90000546 (+COV) Soln.date: 2020-Aug-06_09:05:10   # obs: 4135 (2018-2019)

IAU76/J2000 helio. ecliptic osc. elements (au, days, deg., period=Julian yrs):

 EPOCH=  2458465.5 ! 2018-Dec-13.0000000 (TDB)    RMSW= n.a.
  EC= .6587597216166052   QR= 1.055355767895463   TP= 2458465.4312022026
  OM= 82.15763882934478   W= 356.3410943543136    IN= 11.74759274314818
  A= 3.092705740644532    MA= .01246725113044034  ADIST= 5.1300557133936
  PER= 5.4389631333004    N= .181215842           ANGMOM= .022760019
  DAN= 1.05621            DDN= 5.10995            L= 78.5751806
  B= -.7444681            MOID= .0713354          TP= 2018-Dec-12.9312022026

Comet physical (GM= km^3/s^2; RAD= km):
  GM= n.a.                RAD= .600
  M1=  16.5     M2=  n.a.     k1=  4.5    k2= n.a.     PHCOF= n.a.

Comet non-gravitational force model (AMRAT=m^2/kg;A1-A3=au/d^2;DT=days;R0=au):
  AMRAT=  0.                                      DT=  0.
  A1= 4.018869996071E-9   A2= -1.352227479219E-9  A3= 8.151537925005E-10
Standard model:
  ALN=  .1112620426   NK=  4.6142   NM=  2.15     NN=  5.093    R0=  2.808

COMET comments 
1: soln ref.= JPL#K181/21, data arc: 2018-05-08 to 2019-06-26
2: k1=4.5; radar( 4 delay, 1 Dop.);
*******************************************************************************


*******************************************************************************
Ephemeris / MAIL_REQUEST Mon Mar  1 13:22:50 2021 Pasadena, USA  / Horizons
*******************************************************************************
Target body name: 46P/Wirtanen                    {source: JPL#K181/21}
Center body name: Sun (10)                        {source: DE431}
Center-site name: BODY CENTER
*******************************************************************************
Start time      : A.D. 1990-Jan-01 00:00:00.0000 TDB
Stop  time      : A.D. 2020-Dec-31 00:00:00.0000 TDB
Step-size       : 10080 minutes
*******************************************************************************
Center geodetic : 0.00000000,0.00000000,0.0000000 {E-lon(deg),Lat(deg),Alt(km)}
Center cylindric: 0.00000000,0.00000000,0.0000000 {E-lon(deg),Dxy(km),Dz(km)}
Center radii    : 696000.0 x 696000.0 x 696000.0 k{Equator, meridian, pole}    
Small perturbers: Yes                             {source: SB431-N16}
Output units    : AU-D
Output type     : GEOMETRIC cartesian states
Output format   : 6 (LT, range, and range-rate)
Reference frame : Ecliptic of J2000.0
*******************************************************************************
Initial IAU76/J2000 heliocentric ecliptic osculating elements (au, days, deg.):
 EPOCH=  2458465.5 ! 2018-Dec-13.0000000 (TDB)    RMSW= n.a.                  
  EC= .6587597216166052   QR= 1.055355767895463   TP= 2458465.4312022026      
  OM= 82.15763882934478   W= 356.3410943543136    IN= 11.74759274314818       
 Equivalent ICRF heliocentric equatorial cartesian coordinates (au, au/d):
  X= 2.076061501260943E-01  Y= 9.546055228349101E-01  Z= 3.992551230629515E-01
 VX=-2.069018233276160E-02 VY= 2.129239158457929E-03 VZ= 5.699446706585975E-03
Comet physical (GM= km^3/s^2; RAD= km):                                        
  GM= n.a.                RAD= .600                                           
  M1=  16.5     M2=  n.a.     k1=  4.5    k2= n.a.     PHCOF= n.a.            
Comet non-gravitational force model (AMRAT=m^2/kg;A1-A3=au/d^2;DT=days;R0=au): 
  AMRAT=  0.                                      DT=  0.                     
  A1= 4.018869996071E-9   A2= -1.352227479219E-9  A3= 8.151537925005E-10      
Standard model:                                                               
  ALN=  .1112620426   NK=  4.6142   NM=  2.15     NN=  5.093    R0=  2.808    
*******************************************************************************
           JDTDB,            Calendar Date (TDB),                     LT,                     RG,                     RR,
**************************************************************************************************************************
$$SOE
2458672.500000000, A.D. 2019-Jul-08 00:00:00.0000,  1.457060639650727E-02,  2.522822292364188E+00,  7.582658749457774E-03,
2458679.500000000, A.D. 2019-Jul-15 00:00:00.0000,  1.487514518033723E-02,  2.575551548225486E+00,  7.482776598966145E-03,
2458686.500000000, A.D. 2019-Jul-22 00:00:00.0000,  1.517563979932186E-02,  2.627580578650166E+00,  7.382641422559301E-03,
2458693.500000000, A.D. 2019-Jul-29 00:00:00.0000,  1.547208538233657E-02,  2.678908540229150E+00,  7.282509899715799E-03,
2458700.500000000, A.D. 2019-Aug-05 00:00:00.0000,  1.576448647653148E-02,  2.729536220277073E+00,  7.182592687428993E-03,
2458707.500000000, A.D. 2019-Aug-12 00:00:00.0000,  1.605285534583975E-02,  2.779465742228139E+00,  7.083061974672135E-03,
2458714.500000000, A.D. 2019-Aug-19 00:00:00.0000,  1.633721053529494E-02,  2.828700317055373E+00,  6.984057090591614E-03,
2458721.500000000, A.D. 2019-Aug-26 00:00:00.0000,  1.661757564109378E-02,  2.877244030313587E+00,  6.885689593391668E-03,
2458728.500000000, A.D. 2019-Sep-02 00:00:00.0000,  1.689397832473960E-02,  2.925101671443616E+00,  6.788050152794160E-03,
2458735.500000000, A.D. 2019-Sep-09 00:00:00.0000,  1.716644956717424E-02,  2.972278604629257E+00,  6.691212535328883E-03,
2458742.500000000, A.D. 2019-Sep-16 00:00:00.0000,  1.743502300613408E-02,  3.018780654064015E+00,  6.595234661684350E-03,
2458749.500000000, A.D. 2019-Sep-23 00:00:00.0000,  1.769973433704696E-02,  3.064614000219636E+00,  6.500160844611131E-03,
2458756.500000000, A.D. 2019-Sep-30 00:00:00.0000,  1.796062081406618E-02,  3.109785093452803E+00,  6.406024250267698E-03,
2458763.500000000, A.D. 2019-Oct-07 00:00:00.0000,  1.821772084062506E-02,  3.154300583111880E+00,  6.312848854685493E-03,
2458770.500000000, A.D. 2019-Oct-14 00:00:00.0000,  1.847107363042525E-02,  3.198167258838828E+00,  6.220651000065203E-03,
2458777.500000000, A.D. 2019-Oct-21 00:00:00.0000,  1.872071892567067E-02,  3.241392001782949E+00,  6.129440687179451E-03,
2458784.500000000, A.D. 2019-Oct-28 00:00:00.0000,  1.896669676350394E-02,  3.283981744160593E+00,  6.039222674000679E-03,
2458791.500000000, A.D. 2019-Nov-04 00:00:00.0000,  1.920904728283530E-02,  3.325943435808632E+00,  5.949997356354037E-03,
2458798.500000000, A.D. 2019-Nov-11 00:00:00.0000,  1.944781055796895E-02,  3.367284015377747E+00,  5.861761128043559E-03,
2458805.500000000, A.D. 2019-Nov-18 00:00:00.0000,  1.968302642961929E-02,  3.408010381073796E+00,  5.774505974835004E-03,
2458812.500000000, A.D. 2019-Nov-25 00:00:00.0000,  1.991473433889821E-02,  3.448129361913612E+00,  5.688220656070313E-03,
2458819.500000000, A.D. 2019-Dec-02 00:00:00.0000,  2.014297326375742E-02,  3.487647706720322E+00,  5.602893795816146E-03,
2458826.500000000, A.D. 2019-Dec-09 00:00:00.0000,  2.036778171569628E-02,  3.526572083553341E+00,  5.518513365208371E-03,
2458833.500000000, A.D. 2019-Dec-16 00:00:00.0000,  2.058919768295196E-02,  3.564909069872037E+00,  5.435065471128540E-03,
2458840.500000000, A.D. 2019-Dec-23 00:00:00.0000,  2.080725855867705E-02,  3.602665140100083E+00,  5.352534664972886E-03,
2458847.500000000, A.D. 2019-Dec-30 00:00:00.0000,  2.102200108898269E-02,  3.639846656629389E+00,  5.270904456172644E-03,
2458854.500000000, A.D. 2020-Jan-06 00:00:00.0000,  2.123346133814473E-02,  3.676459863795753E+00,  5.190157650189555E-03,
2458861.500000000, A.D. 2020-Jan-13 00:00:00.0000,  2.144167466514295E-02,  3.712510883816740E+00,  5.110276586033184E-03,
2458868.500000000, A.D. 2020-Jan-20 00:00:00.0000,  2.164667570896353E-02,  3.748005714246891E+00,  5.031243339620501E-03,
2458875.500000000, A.D. 2020-Jan-27 00:00:00.0000,  2.184849838184444E-02,  3.782950226808190E+00,  4.953039910252055E-03,
2458882.500000000, A.D. 2020-Feb-03 00:00:00.0000,  2.204717586812159E-02,  3.817350167190289E+00,  4.875648264771033E-03,
2458889.500000000, A.D. 2020-Feb-10 00:00:00.0000,  2.224274061402188E-02,  3.851211153283225E+00,  4.799049738310439E-03,
2458896.500000000, A.D. 2020-Feb-17 00:00:00.0000,  2.243522428031743E-02,  3.884538666979760E+00,  4.723224130459128E-03,
2458903.500000000, A.D. 2020-Feb-24 00:00:00.0000,  2.262465770749506E-02,  3.917338048144653E+00,  4.648151638386334E-03,
2458910.500000000, A.D. 2020-Mar-02 00:00:00.0000,  2.281107098307407E-02,  3.949614506270382E+00,  4.573814736526603E-03,
2458917.500000000, A.D. 2020-Mar-09 00:00:00.0000,  2.299449350476600E-02,  3.981373131412914E+00,  4.500196519181617E-03,
2458924.500000000, A.D. 2020-Mar-16 00:00:00.0000,  2.317495398214926E-02,  4.012618894481657E+00,  4.427279848993138E-03,
2458931.500000000, A.D. 2020-Mar-23 00:00:00.0000,  2.335248043075336E-02,  4.043356646215177E+00,  4.355047579566747E-03,
2458938.500000000, A.D. 2020-Mar-30 00:00:00.0000,  2.352710017692427E-02,  4.073591118023606E+00,  4.283482790991315E-03,
2458945.500000000, A.D. 2020-Apr-06 00:00:00.0000,  2.369883986967168E-02,  4.103326924039944E+00,  4.212568909643550E-03,
2458952.500000000, A.D. 2020-Apr-13 00:00:00.0000,  2.386772549622133E-02,  4.132568563812844E+00,  4.142289782257880E-03,
2458959.500000000, A.D. 2020-Apr-20 00:00:00.0000,  2.403378240047549E-02,  4.161320425502952E+00,  4.072629750391726E-03,
2458966.500000000, A.D. 2020-Apr-27 00:00:00.0000,  2.419703530448154E-02,  4.189586789600082E+00,  4.003573711969933E-03,
2458973.500000000, A.D. 2020-May-04 00:00:00.0000,  2.435750832851657E-02,  4.217371832400753E+00,  3.935106906460032E-03,
